,human_suggested_id,address1,address2,address3,country,fulladdress,assetdescription,additionalassetdescription,receiversfirm,concat,concat_clean,token,token_clean,label
576,,Great Victoria Street,Belfast,Antrim,Northern Ireland,"Great Victoria Street, Belfast, Antrim, Northern Ireland",Development - Not Commenced,,Keenan Corporate Finance,"Great Victoria Street Belfast Antrim Northern Ireland Great Victoria Street, Belfast, Antrim, Northern Ireland Development - Not Commenced nan Keenan Corporate Finance","great victoria street belfast antrim northern ireland great victoria street, belfast, antrim, northern ireland development - not commenced  kee corporate fice","['great', 'victoria', 'street', 'belfast', 'antrim', 'northern', 'ireland', 'great', 'victoria', 'street', ',', 'belfast', ',', 'antrim', ',', 'northern', 'ireland', 'development', '-', 'not', 'commenced', 'kee', 'corporate', 'fice']",great victoria street belfast antrim northern ireland great victoria street belfast antrim northern ireland development not commenced kee corporate fice,2
577,,"Belsize Meadows
Phase 1",Lisburn,Antrim,Northern Ireland,"Belsize Meadows
Phase 1, Lisburn, Antrim, Northern Ireland",Development - Commenced,,BDO Northern Ireland,"Belsize Meadows
Phase 1 Lisburn Antrim Northern Ireland Belsize Meadows
Phase 1, Lisburn, Antrim, Northern Ireland Development - Commenced nan BDO Northern Ireland","belsize meadows phase 1 lisburn antrim northern ireland belsize meadows phase 1, lisburn, antrim, northern ireland development - commenced  bdo northern ireland","['belsize', 'meadows', 'phase', '1', 'lisburn', 'antrim', 'northern', 'ireland', 'belsize', 'meadows', 'phase', '1', ',', 'lisburn', ',', 'antrim', ',', 'northern', 'ireland', 'development', '-', 'commenced', 'bdo', 'northern', 'ireland']",belsize meadows phase 1 lisburn antrim northern ireland belsize meadows phase 1 lisburn antrim northern ireland development commenced bdo northern ireland,2
578,,"Belsize Meadows
Phase 2",Lisburn,Antrim,Northern Ireland,"Belsize Meadows
Phase 2, Lisburn, Antrim, Northern Ireland",Development - Not Commenced,,BDO Northern Ireland,"Belsize Meadows
Phase 2 Lisburn Antrim Northern Ireland Belsize Meadows
Phase 2, Lisburn, Antrim, Northern Ireland Development - Not Commenced nan BDO Northern Ireland","belsize meadows phase 2 lisburn antrim northern ireland belsize meadows phase 2, lisburn, antrim, northern ireland development - not commenced  bdo northern ireland","['belsize', 'meadows', 'phase', '2', 'lisburn', 'antrim', 'northern', 'ireland', 'belsize', 'meadows', 'phase', '2', ',', 'lisburn', ',', 'antrim', ',', 'northern', 'ireland', 'development', '-', 'not', 'commenced', 'bdo', 'northern', 'ireland']",belsize meadows phase 2 lisburn antrim northern ireland belsize meadows phase 2 lisburn antrim northern ireland development not commenced bdo northern ireland,2
579,,Michelin Road,Newtonabbey,Antrim,Northern Ireland,"Michelin Road, Newtonabbey, Antrim, Northern Ireland",Industrial,,kavanaghfennell,"Michelin Road Newtonabbey Antrim Northern Ireland Michelin Road, Newtonabbey, Antrim, Northern Ireland Industrial nan kavanaghfennell","michelin road newtonabbey antrim northern ireland michelin road, newtonabbey, antrim, northern ireland industrial  kavanaghfennell","['michelin', 'road', 'newtonabbey', 'antrim', 'northern', 'ireland', 'michelin', 'road', ',', 'newtonabbey', ',', 'antrim', ',', 'northern', 'ireland', 'industrial', 'kavanaghfennell']",michelin road newtonabbey antrim northern ireland michelin road newtonabbey antrim northern ireland industrial kavanaghfennell,2
580,,Lylehill Road,Templepatrick,Antrim,Northern Ireland,"Lylehill Road, Templepatrick, Antrim, Northern Ireland",Development - Not Commenced,,PwC,"Lylehill Road Templepatrick Antrim Northern Ireland Lylehill Road, Templepatrick, Antrim, Northern Ireland Development - Not Commenced nan PwC","lylehill road templepatrick antrim northern ireland lylehill road, templepatrick, antrim, northern ireland development - not commenced  pwc","['lylehill', 'road', 'templepatrick', 'antrim', 'northern', 'ireland', 'lylehill', 'road', ',', 'templepatrick', ',', 'antrim', ',', 'northern', 'ireland', 'development', '-', 'not', 'commenced', 'pwc']",lylehill road templepatrick antrim northern ireland lylehill road templepatrick antrim northern ireland development not commenced pwc,2
581,,Strangford Road,,"Ardglass, BT30 7SH",Northern Ireland,"Strangford Road, Ardglass, BT30 7SH, Northern Ireland",Development - Commenced,,BDO Northern Ireland,"Strangford Road nan Ardglass, BT30 7SH Northern Ireland Strangford Road, Ardglass, BT30 7SH, Northern Ireland Development - Commenced nan BDO Northern Ireland","strangford road  ardglass, bt30 7sh northern ireland strangford road, ardglass, bt30 7sh, northern ireland development - commenced  bdo northern ireland","['strangford', 'road', 'ardglass', ',', 'bt30', '7sh', 'northern', 'ireland', 'strangford', 'road', ',', 'ardglass', ',', 'bt30', '7sh', ',', 'northern', 'ireland', 'development', '-', 'commenced', 'bdo', 'northern', 'ireland']",strangford road ardglass bt30 7sh northern ireland strangford road ardglass bt30 7sh northern ireland development commenced bdo northern ireland,2
582,,Union Street,Lurgan,Armagh,Northern Ireland,"Union Street, Lurgan, Armagh, Northern Ireland",Development - Not Commenced,,BDO Northern Ireland,"Union Street Lurgan Armagh Northern Ireland Union Street, Lurgan, Armagh, Northern Ireland Development - Not Commenced nan BDO Northern Ireland","union street lurgan armagh northern ireland union street, lurgan, armagh, northern ireland development - not commenced  bdo northern ireland","['union', 'street', 'lurgan', 'armagh', 'northern', 'ireland', 'union', 'street', ',', 'lurgan', ',', 'armagh', ',', 'northern', 'ireland', 'development', '-', 'not', 'commenced', 'bdo', 'northern', 'ireland']",union street lurgan armagh northern ireland union street lurgan armagh northern ireland development not commenced bdo northern ireland,2
583,,Derryhale Road,Portadown,Armagh,Northern Ireland,"Derryhale Road, Portadown, Armagh, Northern Ireland",Development - Not Commenced,,RSM McClure Watters,"Derryhale Road Portadown Armagh Northern Ireland Derryhale Road, Portadown, Armagh, Northern Ireland Development - Not Commenced nan RSM McClure Watters","derryhale road portadown armagh northern ireland derryhale road, portadown, armagh, northern ireland development - not commenced  rsm mcclure watters","['derryhale', 'road', 'portadown', 'armagh', 'northern', 'ireland', 'derryhale', 'road', ',', 'portadown', ',', 'armagh', ',', 'northern', 'ireland', 'development', '-', 'not', 'commenced', 'rsm', 'mcclure', 'watters']",derryhale road portadown armagh northern ireland derryhale road portadown armagh northern ireland development not commenced rsm mcclure watters,2
584,,Limestone Square,Rock Road,Armagh,Northern Ireland,"Limestone Square, Rock Road, Armagh, Northern Ireland",Residential,,RSM McClure Watters,"Limestone Square Rock Road Armagh Northern Ireland Limestone Square, Rock Road, Armagh, Northern Ireland Residential nan RSM McClure Watters","limestone square rock road armagh northern ireland limestone square, rock road, armagh, northern ireland residential  rsm mcclure watters","['limestone', 'square', 'rock', 'road', 'armagh', 'northern', 'ireland', 'limestone', 'square', ',', 'rock', 'road', ',', 'armagh', ',', 'northern', 'ireland', 'residential', 'rsm', 'mcclure', 'watters']",limestone square rock road armagh northern ireland limestone square rock road armagh northern ireland residential rsm mcclure watters,2
585,,Limestone Square,Rock Road,Armagh,Northern Ireland,"Limestone Square, Rock Road, Armagh, Northern Ireland",Development - Not Commenced,,RSM McClure Watters,"Limestone Square Rock Road Armagh Northern Ireland Limestone Square, Rock Road, Armagh, Northern Ireland Development - Not Commenced nan RSM McClure Watters","limestone square rock road armagh northern ireland limestone square, rock road, armagh, northern ireland development - not commenced  rsm mcclure watters","['limestone', 'square', 'rock', 'road', 'armagh', 'northern', 'ireland', 'limestone', 'square', ',', 'rock', 'road', ',', 'armagh', ',', 'northern', 'ireland', 'development', '-', 'not', 'commenced', 'rsm', 'mcclure', 'watters']",limestone square rock road armagh northern ireland limestone square rock road armagh northern ireland development not commenced rsm mcclure watters,2
586,,Oak Grove,,"Banbridge, BT32 3GT",Northern Ireland,"Oak Grove, Banbridge, BT32 3GT, Northern Ireland",Development - Not Commenced,,BDO Northern Ireland,"Oak Grove nan Banbridge, BT32 3GT Northern Ireland Oak Grove, Banbridge, BT32 3GT, Northern Ireland Development - Not Commenced nan BDO Northern Ireland","oak grove  banbridge, bt32 3gt northern ireland oak grove, banbridge, bt32 3gt, northern ireland development - not commenced  bdo northern ireland","['oak', 'grove', 'banbridge', ',', 'bt32', '3gt', 'northern', 'ireland', 'oak', 'grove', ',', 'banbridge', ',', 'bt32', '3gt', ',', 'northern', 'ireland', 'development', '-', 'not', 'commenced', 'bdo', 'northern', 'ireland']",oak grove banbridge bt32 3gt northern ireland oak grove banbridge bt32 3gt northern ireland development not commenced bdo northern ireland,2
587,,Millmount,Dundonald,Belfast,Northern Ireland,"Millmount, Dundonald, Belfast, Northern Ireland",Development - Not Commenced,,Baker Tilly Ryan Glennon,"Millmount Dundonald Belfast Northern Ireland Millmount, Dundonald, Belfast, Northern Ireland Development - Not Commenced nan Baker Tilly Ryan Glennon","millmount dundonald belfast northern ireland millmount, dundonald, belfast, northern ireland development - not commenced  baker tilly ryan glennon","['millmount', 'dundonald', 'belfast', 'northern', 'ireland', 'millmount', ',', 'dundonald', ',', 'belfast', ',', 'northern', 'ireland', 'development', '-', 'not', 'commenced', 'baker', 'tilly', 'ryan', 'glennon']",millmount dundonald belfast northern ireland millmount dundonald belfast northern ireland development not commenced baker tilly ryan glennon,2
588,,Locksley Drive,Finaghy,Belfast,Northern Ireland,"Locksley Drive, Finaghy, Belfast, Northern Ireland",Development - Not Commenced,,KPMG,"Locksley Drive Finaghy Belfast Northern Ireland Locksley Drive, Finaghy, Belfast, Northern Ireland Development - Not Commenced nan KPMG","locksley drive finaghy belfast northern ireland locksley drive, finaghy, belfast, northern ireland development - not commenced  kpmg","['locksley', 'drive', 'finaghy', 'belfast', 'northern', 'ireland', 'locksley', 'drive', ',', 'finaghy', ',', 'belfast', ',', 'northern', 'ireland', 'development', '-', 'not', 'commenced', 'kpmg']",locksley drive finaghy belfast northern ireland locksley drive finaghy belfast northern ireland development not commenced kpmg,2
589,,Stranmillis Gardens,,"Belfast, BT9 5AS",Northern Ireland,"Stranmillis Gardens, Belfast, BT9 5AS, Northern Ireland",Residential,,BDO Northern Ireland,"Stranmillis Gardens nan Belfast, BT9 5AS Northern Ireland Stranmillis Gardens, Belfast, BT9 5AS, Northern Ireland Residential nan BDO Northern Ireland","stranmillis gardens  belfast, bt9 5as northern ireland stranmillis gardens, belfast, bt9 5as, northern ireland residential  bdo northern ireland","['stranmillis', 'gardens', 'belfast', ',', 'bt9', '5as', 'northern', 'ireland', 'stranmillis', 'gardens', ',', 'belfast', ',', 'bt9', '5as', ',', 'northern', 'ireland', 'residential', 'bdo', 'northern', 'ireland']",stranmillis gardens belfast bt9 5as northern ireland stranmillis gardens belfast bt9 5as northern ireland residential bdo northern ireland,2
590,,Park Street,,Coleraine BT52,Northern Ireland,"Park Street, Coleraine BT52, Northern Ireland",Public House,,Osborne King & Megran Ltd,"Park Street nan Coleraine BT52 Northern Ireland Park Street, Coleraine BT52, Northern Ireland Public House nan Osborne King & Megran Ltd","park street  coleraine bt52 northern ireland park street, coleraine bt52, northern ireland public house  osborne king & megran ltd","['park', 'street', 'coleraine', 'bt52', 'northern', 'ireland', 'park', 'street', ',', 'coleraine', 'bt52', ',', 'northern', 'ireland', 'public', 'house', 'osborne', 'king', '&', 'megran', 'ltd']",park street coleraine bt52 northern ireland park street coleraine bt52 northern ireland public house osborne king megran ltd,2
591,,Ringsend Road,Banbridge,Down,Northern Ireland,"Ringsend Road, Banbridge, Down, Northern Ireland",Agricultural Land,,RSM McClure Watters,"Ringsend Road Banbridge Down Northern Ireland Ringsend Road, Banbridge, Down, Northern Ireland Agricultural Land nan RSM McClure Watters","ringsend road banbridge down northern ireland ringsend road, banbridge, down, northern ireland agricultural land  rsm mcclure watters","['ringsend', 'road', 'banbridge', 'down', 'northern', 'ireland', 'ringsend', 'road', ',', 'banbridge', ',', 'down', ',', 'northern', 'ireland', 'agricultural', 'land', 'rsm', 'mcclure', 'watters']",ringsend road banbridge down northern ireland ringsend road banbridge down northern ireland agricultural land rsm mcclure watters,2
592,,"Mullafernaghan
Road",Banbridge,Down,Northern Ireland,"Mullafernaghan
Road, Banbridge, Down, Northern Ireland",Development - Not Commenced,,RSM McClure Watters,"Mullafernaghan
Road Banbridge Down Northern Ireland Mullafernaghan
Road, Banbridge, Down, Northern Ireland Development - Not Commenced nan RSM McClure Watters","mullafernaghan road banbridge down northern ireland mullafernaghan road, banbridge, down, northern ireland development - not commenced  rsm mcclure watters","['mullafernaghan', 'road', 'banbridge', 'down', 'northern', 'ireland', 'mullafernaghan', 'road', ',', 'banbridge', ',', 'down', ',', 'northern', 'ireland', 'development', '-', 'not', 'commenced', 'rsm', 'mcclure', 'watters']",mullafernaghan road banbridge down northern ireland mullafernaghan road banbridge down northern ireland development not commenced rsm mcclure watters,2
593,,"Mullafernaghan
Road",Banbridge,Down,Northern Ireland,"Mullafernaghan
Road, Banbridge, Down, Northern Ireland",Agricultural Land,,RSM McClure Watters,"Mullafernaghan
Road Banbridge Down Northern Ireland Mullafernaghan
Road, Banbridge, Down, Northern Ireland Agricultural Land nan RSM McClure Watters","mullafernaghan road banbridge down northern ireland mullafernaghan road, banbridge, down, northern ireland agricultural land  rsm mcclure watters","['mullafernaghan', 'road', 'banbridge', 'down', 'northern', 'ireland', 'mullafernaghan', 'road', ',', 'banbridge', ',', 'down', ',', 'northern', 'ireland', 'agricultural', 'land', 'rsm', 'mcclure', 'watters']",mullafernaghan road banbridge down northern ireland mullafernaghan road banbridge down northern ireland agricultural land rsm mcclure watters,2
594,,Ballygowan Road,Banbridge,Down,Northern Ireland,"Ballygowan Road, Banbridge, Down, Northern Ireland",Agricultural Land,,RSM McClure Watters,"Ballygowan Road Banbridge Down Northern Ireland Ballygowan Road, Banbridge, Down, Northern Ireland Agricultural Land nan RSM McClure Watters","ballygowan road banbridge down northern ireland ballygowan road, banbridge, down, northern ireland agricultural land  rsm mcclure watters","['ballygowan', 'road', 'banbridge', 'down', 'northern', 'ireland', 'ballygowan', 'road', ',', 'banbridge', ',', 'down', ',', 'northern', 'ireland', 'agricultural', 'land', 'rsm', 'mcclure', 'watters']",ballygowan road banbridge down northern ireland ballygowan road banbridge down northern ireland agricultural land rsm mcclure watters,2
595,,Lisadell Place,Bangor,Down,Northern Ireland,"Lisadell Place, Bangor, Down, Northern Ireland",Residential,,KPMG,"Lisadell Place Bangor Down Northern Ireland Lisadell Place, Bangor, Down, Northern Ireland Residential nan KPMG","lisadell place bangor down northern ireland lisadell place, bangor, down, northern ireland residential  kpmg","['lisadell', 'place', 'bangor', 'down', 'northern', 'ireland', 'lisadell', 'place', ',', 'bangor', ',', 'down', ',', 'northern', 'ireland', 'residential', 'kpmg']",lisadell place bangor down northern ireland lisadell place bangor down northern ireland residential kpmg,2
596,,Inn Road,Dollingstown,Down,Northern Ireland,"Inn Road, Dollingstown, Down, Northern Ireland",Residential,,RSM McClure Watters,"Inn Road Dollingstown Down Northern Ireland Inn Road, Dollingstown, Down, Northern Ireland Residential nan RSM McClure Watters","inn road dollingstown down northern ireland inn road, dollingstown, down, northern ireland residential  rsm mcclure watters","['inn', 'road', 'dollingstown', 'down', 'northern', 'ireland', 'inn', 'road', ',', 'dollingstown', ',', 'down', ',', 'northern', 'ireland', 'residential', 'rsm', 'mcclure', 'watters']",inn road dollingstown down northern ireland inn road dollingstown down northern ireland residential rsm mcclure watters,2
597,,Inn Road,Dollingstown,Down,Northern Ireland,"Inn Road, Dollingstown, Down, Northern Ireland",Development - Not Commenced,,RSM McClure Watters,"Inn Road Dollingstown Down Northern Ireland Inn Road, Dollingstown, Down, Northern Ireland Development - Not Commenced nan RSM McClure Watters","inn road dollingstown down northern ireland inn road, dollingstown, down, northern ireland development - not commenced  rsm mcclure watters","['inn', 'road', 'dollingstown', 'down', 'northern', 'ireland', 'inn', 'road', ',', 'dollingstown', ',', 'down', ',', 'northern', 'ireland', 'development', '-', 'not', 'commenced', 'rsm', 'mcclure', 'watters']",inn road dollingstown down northern ireland inn road dollingstown down northern ireland development not commenced rsm mcclure watters,2
598,,Skeagh Road,Dromara,Down,Northern Ireland,"Skeagh Road, Dromara, Down, Northern Ireland",Agricultural Land,,RSM McClure Watters,"Skeagh Road Dromara Down Northern Ireland Skeagh Road, Dromara, Down, Northern Ireland Agricultural Land nan RSM McClure Watters","skeagh road dromara down northern ireland skeagh road, dromara, down, northern ireland agricultural land  rsm mcclure watters","['skeagh', 'road', 'dromara', 'down', 'northern', 'ireland', 'skeagh', 'road', ',', 'dromara', ',', 'down', ',', 'northern', 'ireland', 'agricultural', 'land', 'rsm', 'mcclure', 'watters']",skeagh road dromara down northern ireland skeagh road dromara down northern ireland agricultural land rsm mcclure watters,2
599,,Enagh Road,Dromara,Down,Northern Ireland,"Enagh Road, Dromara, Down, Northern Ireland",Development - Not Commenced,,RSM McClure Watters,"Enagh Road Dromara Down Northern Ireland Enagh Road, Dromara, Down, Northern Ireland Development - Not Commenced nan RSM McClure Watters","enagh road dromara down northern ireland enagh road, dromara, down, northern ireland development - not commenced  rsm mcclure watters","['enagh', 'road', 'dromara', 'down', 'northern', 'ireland', 'enagh', 'road', ',', 'dromara', ',', 'down', ',', 'northern', 'ireland', 'development', '-', 'not', 'commenced', 'rsm', 'mcclure', 'watters']",enagh road dromara down northern ireland enagh road dromara down northern ireland development not commenced rsm mcclure watters,2
600,,Banbridge Road,Dromore,Down,Northern Ireland,"Banbridge Road, Dromore, Down, Northern Ireland",Residential,,RSM McClure Watters,"Banbridge Road Dromore Down Northern Ireland Banbridge Road, Dromore, Down, Northern Ireland Residential nan RSM McClure Watters","banbridge road dromore down northern ireland banbridge road, dromore, down, northern ireland residential  rsm mcclure watters","['banbridge', 'road', 'dromore', 'down', 'northern', 'ireland', 'banbridge', 'road', ',', 'dromore', ',', 'down', ',', 'northern', 'ireland', 'residential', 'rsm', 'mcclure', 'watters']",banbridge road dromore down northern ireland banbridge road dromore down northern ireland residential rsm mcclure watters,2
601,,Hillsborough Road,Dromore,Down,Northern Ireland,"Hillsborough Road, Dromore, Down, Northern Ireland",Development - Not Commenced,,RSM McClure Watters,"Hillsborough Road Dromore Down Northern Ireland Hillsborough Road, Dromore, Down, Northern Ireland Development - Not Commenced nan RSM McClure Watters","hillsborough road dromore down northern ireland hillsborough road, dromore, down, northern ireland development - not commenced  rsm mcclure watters","['hillsborough', 'road', 'dromore', 'down', 'northern', 'ireland', 'hillsborough', 'road', ',', 'dromore', ',', 'down', ',', 'northern', 'ireland', 'development', '-', 'not', 'commenced', 'rsm', 'mcclure', 'watters']",hillsborough road dromore down northern ireland hillsborough road dromore down northern ireland development not commenced rsm mcclure watters,2
602,,Barban Hill,Dromore,Down,Northern Ireland,"Barban Hill, Dromore, Down, Northern Ireland",Residential,,RSM McClure Watters,"Barban Hill Dromore Down Northern Ireland Barban Hill, Dromore, Down, Northern Ireland Residential nan RSM McClure Watters","barban hill dromore down northern ireland barban hill, dromore, down, northern ireland residential  rsm mcclure watters","['barban', 'hill', 'dromore', 'down', 'northern', 'ireland', 'barban', 'hill', ',', 'dromore', ',', 'down', ',', 'northern', 'ireland', 'residential', 'rsm', 'mcclure', 'watters']",barban hill dromore down northern ireland barban hill dromore down northern ireland residential rsm mcclure watters,2
603,,Barban Hill,Dromore,Down,Northern Ireland,"Barban Hill, Dromore, Down, Northern Ireland",Agricultural Land,,RSM McClure Watters,"Barban Hill Dromore Down Northern Ireland Barban Hill, Dromore, Down, Northern Ireland Agricultural Land nan RSM McClure Watters","barban hill dromore down northern ireland barban hill, dromore, down, northern ireland agricultural land  rsm mcclure watters","['barban', 'hill', 'dromore', 'down', 'northern', 'ireland', 'barban', 'hill', ',', 'dromore', ',', 'down', ',', 'northern', 'ireland', 'agricultural', 'land', 'rsm', 'mcclure', 'watters']",barban hill dromore down northern ireland barban hill dromore down northern ireland agricultural land rsm mcclure watters,2
604,,Villawood Road,Dromore,Down,Northern Ireland,"Villawood Road, Dromore, Down, Northern Ireland",Development - Not Commenced,,RSM McClure Watters,"Villawood Road Dromore Down Northern Ireland Villawood Road, Dromore, Down, Northern Ireland Development - Not Commenced nan RSM McClure Watters","villawood road dromore down northern ireland villawood road, dromore, down, northern ireland development - not commenced  rsm mcclure watters","['villawood', 'road', 'dromore', 'down', 'northern', 'ireland', 'villawood', 'road', ',', 'dromore', ',', 'down', ',', 'northern', 'ireland', 'development', '-', 'not', 'commenced', 'rsm', 'mcclure', 'watters']",villawood road dromore down northern ireland villawood road dromore down northern ireland development not commenced rsm mcclure watters,2
605,,Villawood Road,Dromore,Down,Northern Ireland,"Villawood Road, Dromore, Down, Northern Ireland",Residential,,RSM McClure Watters,"Villawood Road Dromore Down Northern Ireland Villawood Road, Dromore, Down, Northern Ireland Residential nan RSM McClure Watters","villawood road dromore down northern ireland villawood road, dromore, down, northern ireland residential  rsm mcclure watters","['villawood', 'road', 'dromore', 'down', 'northern', 'ireland', 'villawood', 'road', ',', 'dromore', ',', 'down', ',', 'northern', 'ireland', 'residential', 'rsm', 'mcclure', 'watters']",villawood road dromore down northern ireland villawood road dromore down northern ireland residential rsm mcclure watters,2
606,,Villawood Road,Dromore,Down,Northern Ireland,"Villawood Road, Dromore, Down, Northern Ireland",Development - Not Commenced,,RSM McClure Watters,"Villawood Road Dromore Down Northern Ireland Villawood Road, Dromore, Down, Northern Ireland Development - Not Commenced nan RSM McClure Watters","villawood road dromore down northern ireland villawood road, dromore, down, northern ireland development - not commenced  rsm mcclure watters","['villawood', 'road', 'dromore', 'down', 'northern', 'ireland', 'villawood', 'road', ',', 'dromore', ',', 'down', ',', 'northern', 'ireland', 'development', '-', 'not', 'commenced', 'rsm', 'mcclure', 'watters']",villawood road dromore down northern ireland villawood road dromore down northern ireland development not commenced rsm mcclure watters,2
607,,Upper Quliiy Road,Dromore,Down,Northern Ireland,"Upper Quliiy Road, Dromore, Down, Northern Ireland",Residential,,RSM McClure Watters,"Upper Quliiy Road Dromore Down Northern Ireland Upper Quliiy Road, Dromore, Down, Northern Ireland Residential nan RSM McClure Watters","upper quliiy road dromore down northern ireland upper quliiy road, dromore, down, northern ireland residential  rsm mcclure watters","['upper', 'quliiy', 'road', 'dromore', 'down', 'northern', 'ireland', 'upper', 'quliiy', 'road', ',', 'dromore', ',', 'down', ',', 'northern', 'ireland', 'residential', 'rsm', 'mcclure', 'watters']",upper quliiy road dromore down northern ireland upper quliiy road dromore down northern ireland residential rsm mcclure watters,2
608,,Upper Quliiy Road,Dromore,Down,Northern Ireland,"Upper Quliiy Road, Dromore, Down, Northern Ireland",Agricultural Land,,RSM McClure Watters,"Upper Quliiy Road Dromore Down Northern Ireland Upper Quliiy Road, Dromore, Down, Northern Ireland Agricultural Land nan RSM McClure Watters","upper quliiy road dromore down northern ireland upper quliiy road, dromore, down, northern ireland agricultural land  rsm mcclure watters","['upper', 'quliiy', 'road', 'dromore', 'down', 'northern', 'ireland', 'upper', 'quliiy', 'road', ',', 'dromore', ',', 'down', ',', 'northern', 'ireland', 'agricultural', 'land', 'rsm', 'mcclure', 'watters']",upper quliiy road dromore down northern ireland upper quliiy road dromore down northern ireland agricultural land rsm mcclure watters,2
609,,"Certian Units at Moss
Lane",Dromore,Down,Northern Ireland,"Certian Units at Moss
Lane, Dromore, Down, Northern Ireland",Industrial,,RSM McClure Watters,"Certian Units at Moss
Lane Dromore Down Northern Ireland Certian Units at Moss
Lane, Dromore, Down, Northern Ireland Industrial nan RSM McClure Watters","certian units at moss lane dromore down northern ireland certian units at moss lane, dromore, down, northern ireland industrial  rsm mcclure watters","['certian', 'units', 'at', 'moss', 'lane', 'dromore', 'down', 'northern', 'ireland', 'certian', 'units', 'at', 'moss', 'lane', ',', 'dromore', ',', 'down', ',', 'northern', 'ireland', 'industrial', 'rsm', 'mcclure', 'watters']",certian units at moss lane dromore down northern ireland certian units at moss lane dromore down northern ireland industrial rsm mcclure watters,2
610,,Lagan Villas,Dromore,Down,Northern Ireland,"Lagan Villas, Dromore, Down, Northern Ireland",Residential,,RSM McClure Watters,"Lagan Villas Dromore Down Northern Ireland Lagan Villas, Dromore, Down, Northern Ireland Residential nan RSM McClure Watters","lagan villas dromore down northern ireland lagan villas, dromore, down, northern ireland residential  rsm mcclure watters","['lagan', 'villas', 'dromore', 'down', 'northern', 'ireland', 'lagan', 'villas', ',', 'dromore', ',', 'down', ',', 'northern', 'ireland', 'residential', 'rsm', 'mcclure', 'watters']",lagan villas dromore down northern ireland lagan villas dromore down northern ireland residential rsm mcclure watters,2
611,,Blackscull Road,Dromore,Down,Northern Ireland,"Blackscull Road, Dromore, Down, Northern Ireland",Agricultural Land,,RSM McClure Watters,"Blackscull Road Dromore Down Northern Ireland Blackscull Road, Dromore, Down, Northern Ireland Agricultural Land nan RSM McClure Watters","blackscull road dromore down northern ireland blackscull road, dromore, down, northern ireland agricultural land  rsm mcclure watters","['blackscull', 'road', 'dromore', 'down', 'northern', 'ireland', 'blackscull', 'road', ',', 'dromore', ',', 'down', ',', 'northern', 'ireland', 'agricultural', 'land', 'rsm', 'mcclure', 'watters']",blackscull road dromore down northern ireland blackscull road dromore down northern ireland agricultural land rsm mcclure watters,2
612,,Mossvale Road,Dromore,Down,Northern Ireland,"Mossvale Road, Dromore, Down, Northern Ireland",Agricultural Land,,RSM McClure Watters,"Mossvale Road Dromore Down Northern Ireland Mossvale Road, Dromore, Down, Northern Ireland Agricultural Land nan RSM McClure Watters","mossvale road dromore down northern ireland mossvale road, dromore, down, northern ireland agricultural land  rsm mcclure watters","['mossvale', 'road', 'dromore', 'down', 'northern', 'ireland', 'mossvale', 'road', ',', 'dromore', ',', 'down', ',', 'northern', 'ireland', 'agricultural', 'land', 'rsm', 'mcclure', 'watters']",mossvale road dromore down northern ireland mossvale road dromore down northern ireland agricultural land rsm mcclure watters,2
613,,Church Street,Dromore,Down,Northern Ireland,"Church Street, Dromore, Down, Northern Ireland",Development - Not Commenced,,RSM McClure Watters,"Church Street Dromore Down Northern Ireland Church Street, Dromore, Down, Northern Ireland Development - Not Commenced nan RSM McClure Watters","church street dromore down northern ireland church street, dromore, down, northern ireland development - not commenced  rsm mcclure watters","['church', 'street', 'dromore', 'down', 'northern', 'ireland', 'church', 'street', ',', 'dromore', ',', 'down', ',', 'northern', 'ireland', 'development', '-', 'not', 'commenced', 'rsm', 'mcclure', 'watters']",church street dromore down northern ireland church street dromore down northern ireland development not commenced rsm mcclure watters,2
614,,Rowantree Road,Dromore,Down,Northern Ireland,"Rowantree Road, Dromore, Down, Northern Ireland",Agricultural Land,,RSM McClure Watters,"Rowantree Road Dromore Down Northern Ireland Rowantree Road, Dromore, Down, Northern Ireland Agricultural Land nan RSM McClure Watters","rowantree road dromore down northern ireland rowantree road, dromore, down, northern ireland agricultural land  rsm mcclure watters","['rowantree', 'road', 'dromore', 'down', 'northern', 'ireland', 'rowantree', 'road', ',', 'dromore', ',', 'down', ',', 'northern', 'ireland', 'agricultural', 'land', 'rsm', 'mcclure', 'watters']",rowantree road dromore down northern ireland rowantree road dromore down northern ireland agricultural land rsm mcclure watters,2
615,,Villawood Road,Dromore,Down,Northern Ireland,"Villawood Road, Dromore, Down, Northern Ireland",Development - Not Commenced,,RSM McClure Watters,"Villawood Road Dromore Down Northern Ireland Villawood Road, Dromore, Down, Northern Ireland Development - Not Commenced nan RSM McClure Watters","villawood road dromore down northern ireland villawood road, dromore, down, northern ireland development - not commenced  rsm mcclure watters","['villawood', 'road', 'dromore', 'down', 'northern', 'ireland', 'villawood', 'road', ',', 'dromore', ',', 'down', ',', 'northern', 'ireland', 'development', '-', 'not', 'commenced', 'rsm', 'mcclure', 'watters']",villawood road dromore down northern ireland villawood road dromore down northern ireland development not commenced rsm mcclure watters,2
616,,Villawood Road,Dromore,Down,Northern Ireland,"Villawood Road, Dromore, Down, Northern Ireland",Residential,,RSM McClure Watters,"Villawood Road Dromore Down Northern Ireland Villawood Road, Dromore, Down, Northern Ireland Residential nan RSM McClure Watters","villawood road dromore down northern ireland villawood road, dromore, down, northern ireland residential  rsm mcclure watters","['villawood', 'road', 'dromore', 'down', 'northern', 'ireland', 'villawood', 'road', ',', 'dromore', ',', 'down', ',', 'northern', 'ireland', 'residential', 'rsm', 'mcclure', 'watters']",villawood road dromore down northern ireland villawood road dromore down northern ireland residential rsm mcclure watters,2
617,,Hillsborough Road,Dromore,Down,Northern Ireland,"Hillsborough Road, Dromore, Down, Northern Ireland",Residential,,RSM McClure Watters,"Hillsborough Road Dromore Down Northern Ireland Hillsborough Road, Dromore, Down, Northern Ireland Residential nan RSM McClure Watters","hillsborough road dromore down northern ireland hillsborough road, dromore, down, northern ireland residential  rsm mcclure watters","['hillsborough', 'road', 'dromore', 'down', 'northern', 'ireland', 'hillsborough', 'road', ',', 'dromore', ',', 'down', ',', 'northern', 'ireland', 'residential', 'rsm', 'mcclure', 'watters']",hillsborough road dromore down northern ireland hillsborough road dromore down northern ireland residential rsm mcclure watters,2
618,,"Quillyburn Industrial
Estate",Dromore,Down,Northern Ireland,"Quillyburn Industrial
Estate, Dromore, Down, Northern Ireland",Industrial,,RSM McClure Watters,"Quillyburn Industrial
Estate Dromore Down Northern Ireland Quillyburn Industrial
Estate, Dromore, Down, Northern Ireland Industrial nan RSM McClure Watters","quillyburn industrial estate dromore down northern ireland quillyburn industrial estate, dromore, down, northern ireland industrial  rsm mcclure watters","['quillyburn', 'industrial', 'estate', 'dromore', 'down', 'northern', 'ireland', 'quillyburn', 'industrial', 'estate', ',', 'dromore', ',', 'down', ',', 'northern', 'ireland', 'industrial', 'rsm', 'mcclure', 'watters']",quillyburn industrial estate dromore down northern ireland quillyburn industrial estate dromore down northern ireland industrial rsm mcclure watters,2
619,,"Quillyburn Industrial
Estate",Dromore,Down,Northern Ireland,"Quillyburn Industrial
Estate, Dromore, Down, Northern Ireland",Development - Not Commenced,,RSM McClure Watters,"Quillyburn Industrial
Estate Dromore Down Northern Ireland Quillyburn Industrial
Estate, Dromore, Down, Northern Ireland Development - Not Commenced nan RSM McClure Watters","quillyburn industrial estate dromore down northern ireland quillyburn industrial estate, dromore, down, northern ireland development - not commenced  rsm mcclure watters","['quillyburn', 'industrial', 'estate', 'dromore', 'down', 'northern', 'ireland', 'quillyburn', 'industrial', 'estate', ',', 'dromore', ',', 'down', ',', 'northern', 'ireland', 'development', '-', 'not', 'commenced', 'rsm', 'mcclure', 'watters']",quillyburn industrial estate dromore down northern ireland quillyburn industrial estate dromore down northern ireland development not commenced rsm mcclure watters,2
620,,Barronstown Road,Dromore,Down,Northern Ireland,"Barronstown Road, Dromore, Down, Northern Ireland",Development - Not Commenced,,RSM McClure Watters,"Barronstown Road Dromore Down Northern Ireland Barronstown Road, Dromore, Down, Northern Ireland Development - Not Commenced nan RSM McClure Watters","barronstown road dromore down northern ireland barronstown road, dromore, down, northern ireland development - not commenced  rsm mcclure watters","['barronstown', 'road', 'dromore', 'down', 'northern', 'ireland', 'barronstown', 'road', ',', 'dromore', ',', 'down', ',', 'northern', 'ireland', 'development', '-', 'not', 'commenced', 'rsm', 'mcclure', 'watters']",barronstown road dromore down northern ireland barronstown road dromore down northern ireland development not commenced rsm mcclure watters,2
621,,Dunlady Road,Dundonald,Down,Northern Ireland,"Dunlady Road, Dundonald, Down, Northern Ireland",Development - Not Commenced,,Keenan Corporate Finance,"Dunlady Road Dundonald Down Northern Ireland Dunlady Road, Dundonald, Down, Northern Ireland Development - Not Commenced nan Keenan Corporate Finance","dunlady road dundonald down northern ireland dunlady road, dundonald, down, northern ireland development - not commenced  kee corporate fice","['dunlady', 'road', 'dundonald', 'down', 'northern', 'ireland', 'dunlady', 'road', ',', 'dundonald', ',', 'down', ',', 'northern', 'ireland', 'development', '-', 'not', 'commenced', 'kee', 'corporate', 'fice']",dunlady road dundonald down northern ireland dunlady road dundonald down northern ireland development not commenced kee corporate fice,2
622,,Annaghbane Road,Loughbrickland,Down,Northern Ireland,"Annaghbane Road, Loughbrickland, Down, Northern Ireland",Development - Not Commenced,,RSM McClure Watters,"Annaghbane Road Loughbrickland Down Northern Ireland Annaghbane Road, Loughbrickland, Down, Northern Ireland Development - Not Commenced nan RSM McClure Watters","annaghbane road loughbrickland down northern ireland annaghbane road, loughbrickland, down, northern ireland development - not commenced  rsm mcclure watters","['annaghbane', 'road', 'loughbrickland', 'down', 'northern', 'ireland', 'annaghbane', 'road', ',', 'loughbrickland', ',', 'down', ',', 'northern', 'ireland', 'development', '-', 'not', 'commenced', 'rsm', 'mcclure', 'watters']",annaghbane road loughbrickland down northern ireland annaghbane road loughbrickland down northern ireland development not commenced rsm mcclure watters,2
623,,Annaghbane Road,Loughbrickland,Down,Northern Ireland,"Annaghbane Road, Loughbrickland, Down, Northern Ireland",Agricultural Land,,RSM McClure Watters,"Annaghbane Road Loughbrickland Down Northern Ireland Annaghbane Road, Loughbrickland, Down, Northern Ireland Agricultural Land nan RSM McClure Watters","annaghbane road loughbrickland down northern ireland annaghbane road, loughbrickland, down, northern ireland agricultural land  rsm mcclure watters","['annaghbane', 'road', 'loughbrickland', 'down', 'northern', 'ireland', 'annaghbane', 'road', ',', 'loughbrickland', ',', 'down', ',', 'northern', 'ireland', 'agricultural', 'land', 'rsm', 'mcclure', 'watters']",annaghbane road loughbrickland down northern ireland annaghbane road loughbrickland down northern ireland agricultural land rsm mcclure watters,2
624,,Annaghbane Road,Loughbrickland,Down,Northern Ireland,"Annaghbane Road, Loughbrickland, Down, Northern Ireland",Residential,,RSM McClure Watters,"Annaghbane Road Loughbrickland Down Northern Ireland Annaghbane Road, Loughbrickland, Down, Northern Ireland Residential nan RSM McClure Watters","annaghbane road loughbrickland down northern ireland annaghbane road, loughbrickland, down, northern ireland residential  rsm mcclure watters","['annaghbane', 'road', 'loughbrickland', 'down', 'northern', 'ireland', 'annaghbane', 'road', ',', 'loughbrickland', ',', 'down', ',', 'northern', 'ireland', 'residential', 'rsm', 'mcclure', 'watters']",annaghbane road loughbrickland down northern ireland annaghbane road loughbrickland down northern ireland residential rsm mcclure watters,2
625,,Drumnabreeze Road,Magheralin,Down,Northern Ireland,"Drumnabreeze Road, Magheralin, Down, Northern Ireland",Residential,,RSM McClure Watters,"Drumnabreeze Road Magheralin Down Northern Ireland Drumnabreeze Road, Magheralin, Down, Northern Ireland Residential nan RSM McClure Watters","drumnabreeze road magheralin down northern ireland drumnabreeze road, magheralin, down, northern ireland residential  rsm mcclure watters","['drumnabreeze', 'road', 'magheralin', 'down', 'northern', 'ireland', 'drumnabreeze', 'road', ',', 'magheralin', ',', 'down', ',', 'northern', 'ireland', 'residential', 'rsm', 'mcclure', 'watters']",drumnabreeze road magheralin down northern ireland drumnabreeze road magheralin down northern ireland residential rsm mcclure watters,2
626,,Lismaine Road,Magheralin,Down,Northern Ireland,"Lismaine Road, Magheralin, Down, Northern Ireland",Development - Not Commenced,,RSM McClure Watters,"Lismaine Road Magheralin Down Northern Ireland Lismaine Road, Magheralin, Down, Northern Ireland Development - Not Commenced nan RSM McClure Watters","lismaine road magheralin down northern ireland lismaine road, magheralin, down, northern ireland development - not commenced  rsm mcclure watters","['lismaine', 'road', 'magheralin', 'down', 'northern', 'ireland', 'lismaine', 'road', ',', 'magheralin', ',', 'down', ',', 'northern', 'ireland', 'development', '-', 'not', 'commenced', 'rsm', 'mcclure', 'watters']",lismaine road magheralin down northern ireland lismaine road magheralin down northern ireland development not commenced rsm mcclure watters,2
627,,Drumnabreeze Road,Magheralin,Down,Northern Ireland,"Drumnabreeze Road, Magheralin, Down, Northern Ireland",Residential,,RSM McClure Watters,"Drumnabreeze Road Magheralin Down Northern Ireland Drumnabreeze Road, Magheralin, Down, Northern Ireland Residential nan RSM McClure Watters","drumnabreeze road magheralin down northern ireland drumnabreeze road, magheralin, down, northern ireland residential  rsm mcclure watters","['drumnabreeze', 'road', 'magheralin', 'down', 'northern', 'ireland', 'drumnabreeze', 'road', ',', 'magheralin', ',', 'down', ',', 'northern', 'ireland', 'residential', 'rsm', 'mcclure', 'watters']",drumnabreeze road magheralin down northern ireland drumnabreeze road magheralin down northern ireland residential rsm mcclure watters,2
628,,Bryansford Road,Newcastle,Down,Northern Ireland,"Bryansford Road, Newcastle, Down, Northern Ireland",Development - Not Commenced,,RSM McClure Watters,"Bryansford Road Newcastle Down Northern Ireland Bryansford Road, Newcastle, Down, Northern Ireland Development - Not Commenced nan RSM McClure Watters","bryansford road newcastle down northern ireland bryansford road, newcastle, down, northern ireland development - not commenced  rsm mcclure watters","['bryansford', 'road', 'newcastle', 'down', 'northern', 'ireland', 'bryansford', 'road', ',', 'newcastle', ',', 'down', ',', 'northern', 'ireland', 'development', '-', 'not', 'commenced', 'rsm', 'mcclure', 'watters']",bryansford road newcastle down northern ireland bryansford road newcastle down northern ireland development not commenced rsm mcclure watters,2
629,,Dorans Hill,Newry,Down,Northern Ireland,"Dorans Hill, Newry, Down, Northern Ireland",Development - Not Commenced,,BDO Northern Ireland,"Dorans Hill Newry Down Northern Ireland Dorans Hill, Newry, Down, Northern Ireland Development - Not Commenced nan BDO Northern Ireland","dorans hill newry down northern ireland dorans hill, newry, down, northern ireland development - not commenced  bdo northern ireland","['dorans', 'hill', 'newry', 'down', 'northern', 'ireland', 'dorans', 'hill', ',', 'newry', ',', 'down', ',', 'northern', 'ireland', 'development', '-', 'not', 'commenced', 'bdo', 'northern', 'ireland']",dorans hill newry down northern ireland dorans hill newry down northern ireland development not commenced bdo northern ireland,2
630,,Tullinisky Road,Waringsford,Down,Northern Ireland,"Tullinisky Road, Waringsford, Down, Northern Ireland",Development - Not Commenced,,RSM McClure Watters,"Tullinisky Road Waringsford Down Northern Ireland Tullinisky Road, Waringsford, Down, Northern Ireland Development - Not Commenced nan RSM McClure Watters","tullinisky road waringsford down northern ireland tullinisky road, waringsford, down, northern ireland development - not commenced  rsm mcclure watters","['tullinisky', 'road', 'waringsford', 'down', 'northern', 'ireland', 'tullinisky', 'road', ',', 'waringsford', ',', 'down', ',', 'northern', 'ireland', 'development', '-', 'not', 'commenced', 'rsm', 'mcclure', 'watters']",tullinisky road waringsford down northern ireland tullinisky road waringsford down northern ireland development not commenced rsm mcclure watters,2
631,,Beech Meadows,Waringstown,Down,Northern Ireland,"Beech Meadows, Waringstown, Down, Northern Ireland",Development - Commenced,,BDO Northern Ireland,"Beech Meadows Waringstown Down Northern Ireland Beech Meadows, Waringstown, Down, Northern Ireland Development - Commenced nan BDO Northern Ireland","beech meadows waringstown down northern ireland beech meadows, waringstown, down, northern ireland development - commenced  bdo northern ireland","['beech', 'meadows', 'waringstown', 'down', 'northern', 'ireland', 'beech', 'meadows', ',', 'waringstown', ',', 'down', ',', 'northern', 'ireland', 'development', '-', 'commenced', 'bdo', 'northern', 'ireland']",beech meadows waringstown down northern ireland beech meadows waringstown down northern ireland development commenced bdo northern ireland,2
632,,Lower Dromore Road,Warrenpoint,Down,Northern Ireland,"Lower Dromore Road, Warrenpoint, Down, Northern Ireland",Development - Not Commenced,,BDO Northern Ireland,"Lower Dromore Road Warrenpoint Down Northern Ireland Lower Dromore Road, Warrenpoint, Down, Northern Ireland Development - Not Commenced nan BDO Northern Ireland","lower dromore road warrenpoint down northern ireland lower dromore road, warrenpoint, down, northern ireland development - not commenced  bdo northern ireland","['lower', 'dromore', 'road', 'warrenpoint', 'down', 'northern', 'ireland', 'lower', 'dromore', 'road', ',', 'warrenpoint', ',', 'down', ',', 'northern', 'ireland', 'development', '-', 'not', 'commenced', 'bdo', 'northern', 'ireland']",lower dromore road warrenpoint down northern ireland lower dromore road warrenpoint down northern ireland development not commenced bdo northern ireland,2
633,,Riverside Apartments,Banbridge Road,Dromore,Northern Ireland,"Riverside Apartments, Banbridge Road, Dromore, Northern Ireland",Residential,,RSM McClure Watters,"Riverside Apartments Banbridge Road Dromore Northern Ireland Riverside Apartments, Banbridge Road, Dromore, Northern Ireland Residential nan RSM McClure Watters","riverside apartments banbridge road dromore northern ireland riverside apartments, banbridge road, dromore, northern ireland residential  rsm mcclure watters","['riverside', 'apartments', 'banbridge', 'road', 'dromore', 'northern', 'ireland', 'riverside', 'apartments', ',', 'banbridge', 'road', ',', 'dromore', ',', 'northern', 'ireland', 'residential', 'rsm', 'mcclure', 'watters']",riverside apartments banbridge road dromore northern ireland riverside apartments banbridge road dromore northern ireland residential rsm mcclure watters,2
634,,Cambric Court,Hillsborough Road,Dromore,Northern Ireland,"Cambric Court, Hillsborough Road, Dromore, Northern Ireland",Residential,,RSM McClure Watters,"Cambric Court Hillsborough Road Dromore Northern Ireland Cambric Court, Hillsborough Road, Dromore, Northern Ireland Residential nan RSM McClure Watters","cambric court hillsborough road dromore northern ireland cambric court, hillsborough road, dromore, northern ireland residential  rsm mcclure watters","['cambric', 'court', 'hillsborough', 'road', 'dromore', 'northern', 'ireland', 'cambric', 'court', ',', 'hillsborough', 'road', ',', 'dromore', ',', 'northern', 'ireland', 'residential', 'rsm', 'mcclure', 'watters']",cambric court hillsborough road dromore northern ireland cambric court hillsborough road dromore northern ireland residential rsm mcclure watters,2
635,,Brookborough Road,Lisnaskea,Fermanagh,Northern Ireland,"Brookborough Road, Lisnaskea, Fermanagh, Northern Ireland",Development - Not Commenced,,RSM McClure Watters,"Brookborough Road Lisnaskea Fermanagh Northern Ireland Brookborough Road, Lisnaskea, Fermanagh, Northern Ireland Development - Not Commenced nan RSM McClure Watters","brookborough road lisnaskea fermanagh northern ireland brookborough road, lisnaskea, fermanagh, northern ireland development - not commenced  rsm mcclure watters","['brookborough', 'road', 'lisnaskea', 'fermanagh', 'northern', 'ireland', 'brookborough', 'road', ',', 'lisnaskea', ',', 'fermanagh', ',', 'northern', 'ireland', 'development', '-', 'not', 'commenced', 'rsm', 'mcclure', 'watters']",brookborough road lisnaskea fermanagh northern ireland brookborough road lisnaskea fermanagh northern ireland development not commenced rsm mcclure watters,2
636,,Moorlough Road,Lisnaskea,Fermanagh,Northern Ireland,"Moorlough Road, Lisnaskea, Fermanagh, Northern Ireland",Development - Not Commenced,,RSM McClure Watters,"Moorlough Road Lisnaskea Fermanagh Northern Ireland Moorlough Road, Lisnaskea, Fermanagh, Northern Ireland Development - Not Commenced nan RSM McClure Watters","moorlough road lisnaskea fermanagh northern ireland moorlough road, lisnaskea, fermanagh, northern ireland development - not commenced  rsm mcclure watters","['moorlough', 'road', 'lisnaskea', 'fermanagh', 'northern', 'ireland', 'moorlough', 'road', ',', 'lisnaskea', ',', 'fermanagh', ',', 'northern', 'ireland', 'development', '-', 'not', 'commenced', 'rsm', 'mcclure', 'watters']",moorlough road lisnaskea fermanagh northern ireland moorlough road lisnaskea fermanagh northern ireland development not commenced rsm mcclure watters,2
637,,Newtownbutler Road,Lisnaskea,Fermanagh,Northern Ireland,"Newtownbutler Road, Lisnaskea, Fermanagh, Northern Ireland",Development - Not Commenced,,RSM McClure Watters,"Newtownbutler Road Lisnaskea Fermanagh Northern Ireland Newtownbutler Road, Lisnaskea, Fermanagh, Northern Ireland Development - Not Commenced nan RSM McClure Watters","newtownbutler road lisnaskea fermanagh northern ireland newtownbutler road, lisnaskea, fermanagh, northern ireland development - not commenced  rsm mcclure watters","['newtownbutler', 'road', 'lisnaskea', 'fermanagh', 'northern', 'ireland', 'newtownbutler', 'road', ',', 'lisnaskea', ',', 'fermanagh', ',', 'northern', 'ireland', 'development', '-', 'not', 'commenced', 'rsm', 'mcclure', 'watters']",newtownbutler road lisnaskea fermanagh northern ireland newtownbutler road lisnaskea fermanagh northern ireland development not commenced rsm mcclure watters,2
638,,Beechfield Mews,Moira Road,Lisburn,Northern Ireland,"Beechfield Mews, Moira Road, Lisburn, Northern Ireland",Residential,,RSM McClure Watters,"Beechfield Mews Moira Road Lisburn Northern Ireland Beechfield Mews, Moira Road, Lisburn, Northern Ireland Residential nan RSM McClure Watters","beechfield mews moira road lisburn northern ireland beechfield mews, moira road, lisburn, northern ireland residential  rsm mcclure watters","['beechfield', 'mews', 'moira', 'road', 'lisburn', 'northern', 'ireland', 'beechfield', 'mews', ',', 'moira', 'road', ',', 'lisburn', ',', 'northern', 'ireland', 'residential', 'rsm', 'mcclure', 'watters']",beechfield mews moira road lisburn northern ireland beechfield mews moira road lisburn northern ireland residential rsm mcclure watters,2
639,,Beechwood,Brookborough Road,Lisnaskea,Northern Ireland,"Beechwood, Brookborough Road, Lisnaskea, Northern Ireland",Residential,,RSM McClure Watters,"Beechwood Brookborough Road Lisnaskea Northern Ireland Beechwood, Brookborough Road, Lisnaskea, Northern Ireland Residential nan RSM McClure Watters","beechwood brookborough road lisnaskea northern ireland beechwood, brookborough road, lisnaskea, northern ireland residential  rsm mcclure watters","['beechwood', 'brookborough', 'road', 'lisnaskea', 'northern', 'ireland', 'beechwood', ',', 'brookborough', 'road', ',', 'lisnaskea', ',', 'northern', 'ireland', 'residential', 'rsm', 'mcclure', 'watters']",beechwood brookborough road lisnaskea northern ireland beechwood brookborough road lisnaskea northern ireland residential rsm mcclure watters,2
640,,Greenhall Highway,Coleraine,Londonderry,Northern Ireland,"Greenhall Highway, Coleraine, Londonderry, Northern Ireland",Development - Not Commenced,,Keenan Corporate Finance,"Greenhall Highway Coleraine Londonderry Northern Ireland Greenhall Highway, Coleraine, Londonderry, Northern Ireland Development - Not Commenced nan Keenan Corporate Finance","greenhall highway coleraine londonderry northern ireland greenhall highway, coleraine, londonderry, northern ireland development - not commenced  kee corporate fice","['greenhall', 'highway', 'coleraine', 'londonderry', 'northern', 'ireland', 'greenhall', 'highway', ',', 'coleraine', ',', 'londonderry', ',', 'northern', 'ireland', 'development', '-', 'not', 'commenced', 'kee', 'corporate', 'fice']",greenhall highway coleraine londonderry northern ireland greenhall highway coleraine londonderry northern ireland development not commenced kee corporate fice,2
641,,Glenshane Road,Drumahoe,Londonderry,Northern Ireland,"Glenshane Road, Drumahoe, Londonderry, Northern Ireland",Development - Not Commenced,,Keenan Corporate Finance,"Glenshane Road Drumahoe Londonderry Northern Ireland Glenshane Road, Drumahoe, Londonderry, Northern Ireland Development - Not Commenced nan Keenan Corporate Finance","glenshane road drumahoe londonderry northern ireland glenshane road, drumahoe, londonderry, northern ireland development - not commenced  kee corporate fice","['glenshane', 'road', 'drumahoe', 'londonderry', 'northern', 'ireland', 'glenshane', 'road', ',', 'drumahoe', ',', 'londonderry', ',', 'northern', 'ireland', 'development', '-', 'not', 'commenced', 'kee', 'corporate', 'fice']",glenshane road drumahoe londonderry northern ireland glenshane road drumahoe londonderry northern ireland development not commenced kee corporate fice,2
642,,Strand Road,Portstewart,Londonderry,Northern Ireland,"Strand Road, Portstewart, Londonderry, Northern Ireland",Residential,,PwC,"Strand Road Portstewart Londonderry Northern Ireland Strand Road, Portstewart, Londonderry, Northern Ireland Residential nan PwC","strand road portstewart londonderry northern ireland strand road, portstewart, londonderry, northern ireland residential  pwc","['strand', 'road', 'portstewart', 'londonderry', 'northern', 'ireland', 'strand', 'road', ',', 'portstewart', ',', 'londonderry', ',', 'northern', 'ireland', 'residential', 'pwc']",strand road portstewart londonderry northern ireland strand road portstewart londonderry northern ireland residential pwc,2
643,,Strand Road,Portstewart,Londonderry,Northern Ireland,"Strand Road, Portstewart, Londonderry, Northern Ireland",Residential,,PwC,"Strand Road Portstewart Londonderry Northern Ireland Strand Road, Portstewart, Londonderry, Northern Ireland Residential nan PwC","strand road portstewart londonderry northern ireland strand road, portstewart, londonderry, northern ireland residential  pwc","['strand', 'road', 'portstewart', 'londonderry', 'northern', 'ireland', 'strand', 'road', ',', 'portstewart', ',', 'londonderry', ',', 'northern', 'ireland', 'residential', 'pwc']",strand road portstewart londonderry northern ireland strand road portstewart londonderry northern ireland residential pwc,2
644,,Letterloan Road,Coleraine,"Londonderry BT51
4PP",Northern Ireland,"Letterloan Road, Coleraine, Londonderry BT51 4PP, Northern Ireland",Industrial,,Ernst & Young LLP,"Letterloan Road Coleraine Londonderry BT51
4PP Northern Ireland Letterloan Road, Coleraine, Londonderry BT51 4PP, Northern Ireland Industrial nan Ernst & Young LLP","letterloan road coleraine londonderry bt51 4pp northern ireland letterloan road, coleraine, londonderry bt51 4pp, northern ireland industrial  ernst & young llp","['letterloan', 'road', 'coleraine', 'londonderry', 'bt51', '4pp', 'northern', 'ireland', 'letterloan', 'road', ',', 'coleraine', ',', 'londonderry', 'bt51', '4pp', ',', 'northern', 'ireland', 'industrial', 'ernst', '&', 'young', 'llp']",letterloan road coleraine londonderry bt51 4pp northern ireland letterloan road coleraine londonderry bt51 4pp northern ireland industrial ernst young llp,2
645,,Millvale Road,,"Newry, BT35 7NH",Northern Ireland,"Millvale Road, Newry, BT35 7NH, Northern Ireland",Office,,BDO Northern Ireland,"Millvale Road nan Newry, BT35 7NH Northern Ireland Millvale Road, Newry, BT35 7NH, Northern Ireland Office nan BDO Northern Ireland","millvale road  newry, bt35 7nh northern ireland millvale road, newry, bt35 7nh, northern ireland office  bdo northern ireland","['millvale', 'road', 'newry', ',', 'bt35', '7nh', 'northern', 'ireland', 'millvale', 'road', ',', 'newry', ',', 'bt35', '7nh', ',', 'northern', 'ireland', 'office', 'bdo', 'northern', 'ireland']",millvale road newry bt35 7nh northern ireland millvale road newry bt35 7nh northern ireland office bdo northern ireland,2
646,,Carricklongfield,Aughnacloy,Tyrone,Northern Ireland,"Carricklongfield, Aughnacloy, Tyrone, Northern Ireland",Development - Not Commenced,,RSM McClure Watters,"Carricklongfield Aughnacloy Tyrone Northern Ireland Carricklongfield, Aughnacloy, Tyrone, Northern Ireland Development - Not Commenced nan RSM McClure Watters","carricklongfield aughnacloy tyrone northern ireland carricklongfield, aughnacloy, tyrone, northern ireland development - not commenced  rsm mcclure watters","['carricklongfield', 'aughnacloy', 'tyrone', 'northern', 'ireland', 'carricklongfield', ',', 'aughnacloy', ',', 'tyrone', ',', 'northern', 'ireland', 'development', '-', 'not', 'commenced', 'rsm', 'mcclure', 'watters']",carricklongfield aughnacloy tyrone northern ireland carricklongfield aughnacloy tyrone northern ireland development not commenced rsm mcclure watters,2
647,,Brookmount Road,Ballylifford,Tyrone,Northern Ireland,"Brookmount Road, Ballylifford, Tyrone, Northern Ireland",Development - Not Commenced,,RSM McClure Watters,"Brookmount Road Ballylifford Tyrone Northern Ireland Brookmount Road, Ballylifford, Tyrone, Northern Ireland Development - Not Commenced nan RSM McClure Watters","brookmount road ballylifford tyrone northern ireland brookmount road, ballylifford, tyrone, northern ireland development - not commenced  rsm mcclure watters","['brookmount', 'road', 'ballylifford', 'tyrone', 'northern', 'ireland', 'brookmount', 'road', ',', 'ballylifford', ',', 'tyrone', ',', 'northern', 'ireland', 'development', '-', 'not', 'commenced', 'rsm', 'mcclure', 'watters']",brookmount road ballylifford tyrone northern ireland brookmount road ballylifford tyrone northern ireland development not commenced rsm mcclure watters,2
648,,Brookmount Road,Ballylifford,Tyrone,Northern Ireland,"Brookmount Road, Ballylifford, Tyrone, Northern Ireland",Residential,,RSM McClure Watters,"Brookmount Road Ballylifford Tyrone Northern Ireland Brookmount Road, Ballylifford, Tyrone, Northern Ireland Residential nan RSM McClure Watters","brookmount road ballylifford tyrone northern ireland brookmount road, ballylifford, tyrone, northern ireland residential  rsm mcclure watters","['brookmount', 'road', 'ballylifford', 'tyrone', 'northern', 'ireland', 'brookmount', 'road', ',', 'ballylifford', ',', 'tyrone', ',', 'northern', 'ireland', 'residential', 'rsm', 'mcclure', 'watters']",brookmount road ballylifford tyrone northern ireland brookmount road ballylifford tyrone northern ireland residential rsm mcclure watters,2
649,,Chruch Road,Beragh,Tyrone,Northern Ireland,"Chruch Road, Beragh, Tyrone, Northern Ireland",Residential,,RSM McClure Watters,"Chruch Road Beragh Tyrone Northern Ireland Chruch Road, Beragh, Tyrone, Northern Ireland Residential nan RSM McClure Watters","chruch road beragh tyrone northern ireland chruch road, beragh, tyrone, northern ireland residential  rsm mcclure watters","['chruch', 'road', 'beragh', 'tyrone', 'northern', 'ireland', 'chruch', 'road', ',', 'beragh', ',', 'tyrone', ',', 'northern', 'ireland', 'residential', 'rsm', 'mcclure', 'watters']",chruch road beragh tyrone northern ireland chruch road beragh tyrone northern ireland residential rsm mcclure watters,2
650,,Church Street,Beragh,Tyrone,Northern Ireland,"Church Street, Beragh, Tyrone, Northern Ireland",Agricultural Land,,RSM McClure Watters,"Church Street Beragh Tyrone Northern Ireland Church Street, Beragh, Tyrone, Northern Ireland Agricultural Land nan RSM McClure Watters","church street beragh tyrone northern ireland church street, beragh, tyrone, northern ireland agricultural land  rsm mcclure watters","['church', 'street', 'beragh', 'tyrone', 'northern', 'ireland', 'church', 'street', ',', 'beragh', ',', 'tyrone', ',', 'northern', 'ireland', 'agricultural', 'land', 'rsm', 'mcclure', 'watters']",church street beragh tyrone northern ireland church street beragh tyrone northern ireland agricultural land rsm mcclure watters,2
651,,Killmeal Road,Dungannon,Tyrone,Northern Ireland,"Killmeal Road, Dungannon, Tyrone, Northern Ireland",Development - Not Commenced,,RSM McClure Watters,"Killmeal Road Dungannon Tyrone Northern Ireland Killmeal Road, Dungannon, Tyrone, Northern Ireland Development - Not Commenced nan RSM McClure Watters","killmeal road dungannon tyrone northern ireland killmeal road, dungannon, tyrone, northern ireland development - not commenced  rsm mcclure watters","['killmeal', 'road', 'dungannon', 'tyrone', 'northern', 'ireland', 'killmeal', 'road', ',', 'dungannon', ',', 'tyrone', ',', 'northern', 'ireland', 'development', '-', 'not', 'commenced', 'rsm', 'mcclure', 'watters']",killmeal road dungannon tyrone northern ireland killmeal road dungannon tyrone northern ireland development not commenced rsm mcclure watters,2
652,,Culvacullion Road,Gortin,Tyrone,Northern Ireland,"Culvacullion Road, Gortin, Tyrone, Northern Ireland",Development - Not Commenced,,RSM McClure Watters,"Culvacullion Road Gortin Tyrone Northern Ireland Culvacullion Road, Gortin, Tyrone, Northern Ireland Development - Not Commenced nan RSM McClure Watters","culvacullion road gortin tyrone northern ireland culvacullion road, gortin, tyrone, northern ireland development - not commenced  rsm mcclure watters","['culvacullion', 'road', 'gortin', 'tyrone', 'northern', 'ireland', 'culvacullion', 'road', ',', 'gortin', ',', 'tyrone', ',', 'northern', 'ireland', 'development', '-', 'not', 'commenced', 'rsm', 'mcclure', 'watters']",culvacullion road gortin tyrone northern ireland culvacullion road gortin tyrone northern ireland development not commenced rsm mcclure watters,2
653,,"The
Old Mill",Tulliniskey Road,Waringsford,Northern Ireland,"The Old Mill, Tulliniskey Road, Waringsford, Northern Ireland",Residential,,RSM McClure Watters,"The
Old Mill Tulliniskey Road Waringsford Northern Ireland The Old Mill, Tulliniskey Road, Waringsford, Northern Ireland Residential nan RSM McClure Watters","the old mill tulliniskey road waringsford northern ireland the old mill, tulliniskey road, waringsford, northern ireland residential  rsm mcclure watters","['the', 'old', 'mill', 'tulliniskey', 'road', 'waringsford', 'northern', 'ireland', 'the', 'old', 'mill', ',', 'tulliniskey', 'road', ',', 'waringsford', ',', 'northern', 'ireland', 'residential', 'rsm', 'mcclure', 'watters']",the old mill tulliniskey road waringsford northern ireland the old mill tulliniskey road waringsford northern ireland residential rsm mcclure watters,2
